{"fetched_at":"2026-03-29T02:12:04Z","count":15717,"tles":[{"name":"BEIDOU-3 M22 (C44)","line1":"1 44793U 19078A   26086.46420429 -.00000031  00000+0  00000+0 0  9998","line2":"2 44793  54.0095 302.7034 0007454  41.3303 318.7622  1.86231892 43124","category":"GPS"}]}